[
    {
        "Altitude(m)": 610399.5137957331,
        "Argument of Periapsis(deg)": 0.0,
        "Eccentricity": 0.0,
        "Inclination(deg)": 60.0,
        "Latitude(deg)": 52.11129344575006,
        "Longitude(deg)": -132.41560629316783,
        "Mean Anomaly(deg)": 65.45449999999998,
        "RAAN(deg)": 280.0,
        "Satellite Name": "Test1 1236",
        "Satellite Number": 1236,
        "Semi-Major Axis(m)": 6980739.136638005,
        "Time(s)": 0
    },
    {
        "Altitude(m)": 610481.6645930817,
        "Argument of Periapsis(deg)": 0.00010418945913296404,
        "Eccentricity": 0.0,
        "Inclination(deg)": 60.0,
        "Latitude(deg)": 52.47089476864972,
        "Longitude(deg)": -131.63346966828027,
        "Mean Anomaly(deg)": 66.07460614546183,
        "RAAN(deg)": 279.99957995086027,
        "Satellite Name": "Test1 1236",
        "Satellite Number": 1236,
        "Semi-Major Axis(m)": 6980739.136638005,
        "Time(s)": 10
    },
    {
        "Altitude(m)": 610562.3542065466,
        "Argument of Periapsis(deg)": 0.0002083789182659281,
        "Eccentricity": 0.0,
        "Inclination(deg)": 60.0,
        "Latitude(deg)": 52.824648680401715,
        "Longitude(deg)": -130.83792008430189,
        "Mean Anomaly(deg)": 66.69471229092363,
        "RAAN(deg)": 279.9991599017205,
        "Satellite Name": "Test1 1236",
        "Satellite Number": 1236,
        "Semi-Major Axis(m)": 6980739.136638005,
        "Time(s)": 20
    },
    {
        "Altitude(m)": 610641.5351703065,
        "Argument of Periapsis(deg)": 0.00031256837739889213,
        "Eccentricity": 0.0,
        "Inclination(deg)": 60.0,
        "Latitude(deg)": 53.172385654384,
        "Longitude(deg)": -130.0287930334793,
        "Mean Anomaly(deg)": 67.3148184363855,
        "RAAN(deg)": 279.9987398525808,
        "Satellite Name": "Test1 1236",
        "Satellite Number": 1236,
        "Semi-Major Axis(m)": 6980739.136638005,
        "Time(s)": 30
    },
    {
        "Altitude(m)": 610719.1609750009,
        "Argument of Periapsis(deg)": 0.0004167578365318562,
        "Eccentricity": 0.0,
        "Inclination(deg)": 60.0,
        "Latitude(deg)": 53.51393268810595,
        "Longitude(deg)": -129.20593562064406,
        "Mean Anomaly(deg)": 67.93492458184728,
        "RAAN(deg)": 279.99831980344106,
        "Satellite Name": "Test1 1236",
        "Satellite Number": 1236,
        "Semi-Major Axis(m)": 6980739.136638005,
        "Time(s)": 40
    },
    {
        "Altitude(m)": 610795.1860900454,
        "Argument of Periapsis(deg)": 0.0005209472956648203,
        "Eccentricity": 0.0,
        "Inclination(deg)": 60.0,
        "Latitude(deg)": 53.84911342517665,
        "Longitude(deg)": -128.36920897739046,
        "Mean Anomaly(deg)": 68.55503072730914,
        "RAAN(deg)": 279.9978997543013,
        "Satellite Name": "Test1 1236",
        "Satellite Number": 1236,
        "Semi-Major Axis(m)": 6980739.136638005,
        "Time(s)": 50
    },
    {
        "Altitude(m)": 610869.5659854681,
        "Argument of Periapsis(deg)": 0.0006251367547977843,
        "Eccentricity": 0.0,
        "Inclination(deg)": 60.0,
        "Latitude(deg)": 54.17774830159583,
        "Longitude(deg)": -127.5184892290261,
        "Mean Anomaly(deg)": 69.175136872771,
        "RAAN(deg)": 279.9974797051615,
        "Satellite Name": "Test1 1236",
        "Satellite Number": 1236,
        "Semi-Major Axis(m)": 6980739.136638005,
        "Time(s)": 60
    },
    {
        "Altitude(m)": 610942.2571532361,
        "Argument of Periapsis(deg)": 0.0007293262139307483,
        "Eccentricity": 0.0,
        "Inclination(deg)": 60.0,
        "Latitude(deg)": 54.49965471803377,
        "Longitude(deg)": -126.65366852285925,
        "Mean Anomaly(deg)": 69.79524301823281,
        "RAAN(deg)": 279.9970596560218,
        "Satellite Name": "Test1 1236",
        "Satellite Number": 1236,
        "Semi-Major Axis(m)": 6980739.136638005,
        "Time(s)": 70
    },
    {
        "Altitude(m)": 611013.2171280802,
        "Argument of Periapsis(deg)": 0.0008335156730637124,
        "Eccentricity": 0.0,
        "Inclination(deg)": 60.0,
        "Latitude(deg)": 54.814647239726746,
        "Longitude(deg)": -125.77465762507819,
        "Mean Anomaly(deg)": 70.41534916369464,
        "RAAN(deg)": 279.996639606882,
        "Satellite Name": "Test1 1236",
        "Satellite Number": 1236,
        "Semi-Major Axis(m)": 6980739.136638005,
        "Time(s)": 80
    },
    {
        "Altitude(m)": 611082.4045077882,
        "Argument of Periapsis(deg)": 0.0009377051321966765,
        "Eccentricity": 0.0,
        "Inclination(deg)": 60.0,
        "Latitude(deg)": 55.12253782554221,
        "Longitude(deg)": -124.88138705343549,
        "Mean Anomaly(deg)": 71.03545530915646,
        "RAAN(deg)": 279.9962195577423,
        "Satellite Name": "Test1 1236",
        "Satellite Number": 1236,
        "Semi-Major Axis(m)": 6980739.136638005,
        "Time(s)": 90
    },
    {
        "Altitude(m)": 611149.7789729936,
        "Argument of Periapsis(deg)": 0.0010418945913296407,
        "Eccentricity": 0.0,
        "Inclination(deg)": 60.0,
        "Latitude(deg)": 55.423136087677,
        "Longitude(deg)": -123.97380825001828,
        "Mean Anomaly(deg)": 71.65556145461831,
        "RAAN(deg)": 279.99579950860254,
        "Satellite Name": "Test1 1236",
        "Satellite Number": 1236,
        "Semi-Major Axis(m)": 6980739.136638005,
        "Time(s)": 100
    },
    {
        "Altitude(m)": 611215.3013064206,
        "Argument of Periapsis(deg)": 0.0011460840504626045,
        "Eccentricity": 0.0,
        "Inclination(deg)": 60.0,
        "Latitude(deg)": 55.716249583317975,
        "Longitude(deg)": -123.05189629674997,
        "Mean Anomaly(deg)": 72.27566760008011,
        "RAAN(deg)": 279.9953794594628,
        "Satellite Name": "Test1 1236",
        "Satellite Number": 1236,
        "Semi-Major Axis(m)": 6980739.136638005,
        "Time(s)": 110
    },
    {
        "Altitude(m)": 611278.933411575,
        "Argument of Periapsis(deg)": 0.0012502735095955685,
        "Eccentricity": 0.0,
        "Inclination(deg)": 60.0,
        "Latitude(deg)": 56.00168413942054,
        "Longitude(deg)": -122.1156511359342,
        "Mean Anomaly(deg)": 72.89577374554196,
        "RAAN(deg)": 279.9949594103231,
        "Satellite Name": "Test1 1236",
        "Satellite Number": 1236,
        "Semi-Major Axis(m)": 6980739.136638005,
        "Time(s)": 120
    },
    {
        "Altitude(m)": 611340.6383309026,
        "Argument of Periapsis(deg)": 0.0013544629687285324,
        "Eccentricity": 0.0,
        "Inclination(deg)": 60.0,
        "Latitude(deg)": 56.279244211553625,
        "Longitude(deg)": -121.1650987949911,
        "Mean Anomaly(deg)": 73.51587989100376,
        "RAAN(deg)": 279.99453936118334,
        "Satellite Name": "Test1 1236",
        "Satellite Number": 1236,
        "Semi-Major Axis(m)": 6980739.136638005,
        "Time(s)": 130
    },
    {
        "Altitude(m)": 611400.3802634045,
        "Argument of Periapsis(deg)": 0.0014586524278614966,
        "Eccentricity": 0.0,
        "Inclination(deg)": 60.0,
        "Latitude(deg)": 56.548733277507516,
        "Longitude(deg)": -120.20029411273083,
        "Mean Anomaly(deg)": 74.13598603646562,
        "RAAN(deg)": 279.99411931204355,
        "Satellite Name": "Test1 1236",
        "Satellite Number": 1236,
        "Semi-Major Axis(m)": 6980739.136638005,
        "Time(s)": 140
    },
    {
        "Altitude(m)": 611458.1245816395,
        "Argument of Periapsis(deg)": 0.0015628418869944607,
        "Eccentricity": 0.0,
        "Inclination(deg)": 60.0,
        "Latitude(deg)": 56.80995426605573,
        "Longitude(deg)": -119.22132192411051,
        "Mean Anomaly(deg)": 74.75609218192743,
        "RAAN(deg)": 279.9936992629039,
        "Satellite Name": "Test1 1236",
        "Satellite Number": 1236,
        "Semi-Major Axis(m)": 6980739.136638005,
        "Time(s)": 150
    },
    {
        "Altitude(m)": 611513.837848204,
        "Argument of Periapsis(deg)": 0.0016670313461274247,
        "Eccentricity": 0.0,
        "Inclination(deg)": 60.0,
        "Latitude(deg)": 57.062710020924044,
        "Longitude(deg)": -118.22829819728658,
        "Mean Anomaly(deg)": 75.37619832738928,
        "RAAN(deg)": 279.9932792137641,
        "Satellite Name": "Test1 1236",
        "Satellite Number": 1236,
        "Semi-Major Axis(m)": 6980739.136638005,
        "Time(s)": 160
    },
    {
        "Altitude(m)": 611567.4878316247,
        "Argument of Periapsis(deg)": 0.0017712208052603888,
        "Eccentricity": 0.0,
        "Inclination(deg)": 60.0,
        "Latitude(deg)": 57.30680379962893,
        "Longitude(deg)": -117.22137261514014,
        "Mean Anomaly(deg)": 75.99630447285112,
        "RAAN(deg)": 279.99285916462435,
        "Satellite Name": "Test1 1236",
        "Satellite Number": 1236,
        "Semi-Major Axis(m)": 6980739.136638005,
        "Time(s)": 170
    },
    {
        "Altitude(m)": 611619.0435216492,
        "Argument of Periapsis(deg)": 0.001875410264393353,
        "Eccentricity": 0.0,
        "Inclination(deg)": 60.0,
        "Latitude(deg)": 57.542039806409235,
        "Longitude(deg)": -116.20072955335714,
        "Mean Anomaly(deg)": 76.61641061831293,
        "RAAN(deg)": 279.9924391154846,
        "Satellite Name": "Test1 1236",
        "Satellite Number": 1236,
        "Semi-Major Axis(m)": 6980739.136638005,
        "Time(s)": 180
    },
    {
        "Altitude(m)": 611668.4751439554,
        "Argument of Periapsis(deg)": 0.0019795997235263173,
        "Eccentricity": 0.0,
        "Inclination(deg)": 60.0,
        "Latitude(deg)": 57.76822375800285,
        "Longitude(deg)": -115.16658894448672,
        "Mean Anomaly(deg)": 77.23651676377479,
        "RAAN(deg)": 279.9920190663449,
        "Satellite Name": "Test1 1236",
        "Satellite Number": 1236,
        "Semi-Major Axis(m)": 6980739.136638005,
        "Time(s)": 190
    }
]